{"type": "FeatureCollection", "features": [ {"type": "Feature", "properties": {"norad_id": 40118, "name": "GAOFEN-2", "group": "resource", "lat": 58.05092129813828, "lon": 45.9591678705169, "alt_km": 615.9131267768626, "timestamp": "2025-12-25T20:42:38.344367+00:00", "meta": {"OBJECT_NAME": "GAOFEN-2", "OBJECT_ID": "2014-049A", "EPOCH": "2025-12-25T07:28:12.720576", "MEAN_MOTION": 14.80628117, "ECCENTRICITY": 0.0008726, "INCLINATION": 98.0363, "RA_OF_ASC_NODE": 58.5005, "ARG_OF_PERICENTER": 78.1327, "MEAN_ANOMALY": 282.0863, "EPHEMERIS_TYPE": 0, "CLASSIFICATION_TYPE": "U", "NORAD_CAT_ID": 40118, "ELEMENT_SET_NO": 999, "REV_AT_EPOCH": 61350, "BSTAR": 7.651956e-05, "MEAN_MOTION_DOT": 5.34e-06, "MEAN_MOTION_DDOT": 0}, "tle": {"line1": "1 40118U 14049A   25359.31125834  .00000534  00000+0  76520-4 0  9998", "line2": "2 40118  98.0363  58.5005 0008726  78.1327 282.0863 14.80628117613501"}}, "geometry": {"type": "Point", "coordinates": [45.9591678705169, 58.05092129813828]}}, {"type": "Feature", "properties": {"norad_id": 40143, "name": "YAOGAN-21", "group": "resource", "lat": -74.08942398497526, "lon": -163.61608283971137, "alt_km": 502.9992938580799, "timestamp": "2025-12-25T20:42:38.344378+00:00", "meta": {"OBJECT_NAME": "YAOGAN-21", "OBJECT_ID": "2014-053A", "EPOCH": "2025-12-25T06:58:58.988064", "MEAN_MOTION": 15.23799126, "ECCENTRICITY": 0.00084754, "INCLINATION": 97.1735, "RA_OF_ASC_NODE": 42.0577, "ARG_OF_PERICENTER": 0.5407, "MEAN_ANOMALY": 359.5839, "EPHEMERIS_TYPE": 0, "CLASSIFICATION_TYPE": "U", "NORAD_CAT_ID": 40143, "ELEMENT_SET_NO": 999, "REV_AT_EPOCH": 62845, "BSTAR": 0.00024517451, "MEAN_MOTION_DOT": 5.841e-05, "MEAN_MOTION_DDOT": 0}, "tle": {"line1": "1 40143U 14053A   25359.29096051  .00005841  00000+0  24517-3 0  9990", "line2": "2 40143  97.1735  42.0577 0008475   0.5407 359.5839 15.23799126628453"}}, "geometry": {"type": "Point", "coordinates": [-163.61608283971137, -74.08942398497526]}}, {"type": "Feature", "properties": {"norad_id": 40275, "name": "YAOGAN-22", "group": "resource", "lat": -9.219519968768639, "lon": 145.23359594632808, "alt_km": 1208.8863709690668, "timestamp": "2025-12-25T20:42:38.344388+00:00", "meta": {"OBJECT_NAME": "YAOGAN-22", "OBJECT_ID": "2014-063A", "EPOCH": "2025-12-25T07:58:53.836320", "MEAN_MOTION": 13.15523268, "ECCENTRICITY": 0.00060926, "INCLINATION": 100.743, "RA_OF_ASC_NODE": 142.9302, "ARG_OF_PERICENTER": 218.1479, "MEAN_ANOMALY": 141.9202, "EPHEMERIS_TYPE": 0, "CLASSIFICATION_TYPE": "U", "NORAD_CAT_ID": 40275, "ELEMENT_SET_NO": 999, "REV_AT_EPOCH": 53695, "BSTAR": 6.6986484e-05, "MEAN_MOTION_DOT": -2.1e-07, "MEAN_MOTION_DDOT": 0}, "tle": {"line1": "1 40275U 14063A   25359.33256755 -.00000021  00000+0  66986-4 0  9994", "line2": "2 40275 100.7430 142.9302 0006092 218.1479 141.9202 13.15523268536958"}}, "geometry": {"type": "Point", "coordinates": [145.23359594632808, -9.219519968768639]}}, {"type": "Feature", "properties": {"norad_id": 40298, "name": "ASNARO", "group": "resource", "lat": 68.85113182300601, "lon": -84.98185410670122, "alt_km": 496.2253266970238, "timestamp": "2025-12-25T20:42:38.344398+00:00", "meta": {"OBJECT_NAME": "ASNARO", "OBJECT_ID": "2014-070A", "EPOCH": "2025-12-25T06:00:27.340416", "MEAN_MOTION": 15.19751329, "ECCENTRICITY": 0.00057712, "INCLINATION": 97.3633, "RA_OF_ASC_NODE": 74.8916, "ARG_OF_PERICENTER": 88.5394, "MEAN_ANOMALY": 271.6502, "EPHEMERIS_TYPE": 0, "CLASSIFICATION_TYPE": "U", "NORAD_CAT_ID": 40298, "ELEMENT_SET_NO": 999, "REV_AT_EPOCH": 61759, "BSTAR": 0.00069856308, "MEAN_MOTION_DOT": 0.00014895, "MEAN_MOTION_DDOT": 0}, "tle": {"line1": "1 40298U 14070A   25359.25031644  .00014895  00000+0  69856-3 0  9997", "line2": "2 40298  97.3633  74.8916 0005771  88.5394 271.6502 15.19751329617592"}}, "geometry": {"type": "Point", "coordinates": [-84.98185410670122, 68.85113182300601]}}, {"type": "Feature", "properties": {"norad_id": 40310, "name": "YAOGAN-24", "group": "resource", "lat": -14.048308948081427, "lon": -51.02131479557112, "alt_km": 646.9230938058699, "timestamp": "2025-12-25T20:42:38.344408+00:00", "meta": {"OBJECT_NAME": "YAOGAN-24", "OBJECT_ID": "2014-072A", "EPOCH": "2025-12-25T08:26:54.100320", "MEAN_MOTION": 14.76203065, "ECCENTRICITY": 0.00152102, "INCLINATION": 98.1234, "RA_OF_ASC_NODE": 130.5133, "ARG_OF_PERICENTER": 100.5143, "MEAN_ANOMALY": 259.7781, "EPHEMERIS_TYPE": 0, "CLASSIFICATION_TYPE": "U", "NORAD_CAT_ID": 40310, "ELEMENT_SET_NO": 999, "REV_AT_EPOCH": 59807, "BSTAR": 0.00018639264, "MEAN_MOTION_DOT": 1.239e-05, "MEAN_MOTION_DDOT": 0}, "tle": {"line1": "1 40310U 14072A   25359.35201505  .00001239  00000+0  18639-3 0  9991", "line2": "2 40310  98.1234 130.5133 0015210 100.5143 259.7781 14.76203065598078"}}, "geometry": {"type": "Point", "coordinates": [-51.02131479557112, -14.048308948081427]}}, {"type": "Feature", "properties": {"norad_id": 40336, "name": "CBERS 4", "group": "resource", "lat": 3.9401882593876816, "lon": -121.99236855180293, "alt_km": 775.4832118628583, "timestamp": "2025-12-25T20:42:38.344418+00:00", "meta": {"OBJECT_NAME": "CBERS 4", "OBJECT_ID": "2014-079A", "EPOCH": "2025-12-25T06:30:40.975776", "MEAN_MOTION": 14.35522682, "ECCENTRICITY": 0.00018867, "INCLINATION": 98.3288, "RA_OF_ASC_NODE": 56.8583, "ARG_OF_PERICENTER": 98.9772, "MEAN_ANOMALY": 261.1627, "EPHEMERIS_TYPE": 0, "CLASSIFICATION_TYPE": "U", "NORAD_CAT_ID": 40336, "ELEMENT_SET_NO": 999, "REV_AT_EPOCH": 57900, "BSTAR": 8.6079923e-05, "MEAN_MOTION_DOT": 2.06e-06, "MEAN_MOTION_DDOT": 0}, "tle": {"line1": "1 40336U 14079A   25359.27130759  .00000206  00000+0  86080-4 0  9998", "line2": "2 40336  98.3288  56.8583 0001886  98.9772 261.1627 14.35522682579000"}}, "geometry": {"type": "Point", "coordinates": [-121.99236855180293, 3.9401882593876816]}}, {"type": "Feature", "properties": {"norad_id": 40362, "name": "YAOGAN-26", "group": "resource", "lat": -5.031871765209923, "lon": 0.697621220533414, "alt_km": 447.62280926835774, "timestamp": "2025-12-25T20:42:38.344428+00:00", "meta": {"OBJECT_NAME": "YAOGAN-26", "OBJECT_ID": "2014-088A", "EPOCH": "2025-12-25T06:41:42.815328", "MEAN_MOTION": 15.39742624, "ECCENTRICITY": 0.00043081, "INCLINATION": 97.0646, "RA_OF_ASC_NODE": 359.5083, "ARG_OF_PERICENTER": 349.3348, "MEAN_ANOMALY": 10.7806, "EPHEMERIS_TYPE": 0, "CLASSIFICATION_TYPE": "U", "NORAD_CAT_ID": 40362, "ELEMENT_SET_NO": 999, "REV_AT_EPOCH": 61087, "BSTAR": 0.0006535079, "MEAN_MOTION_DOT": 0.00025836, "MEAN_MOTION_DDOT": 0}, "tle": {"line1": "1 40362U 14088A   25359.27896777  .00025836  00000+0  65351-3 0  9999", "line2": "2 40362  97.0646 359.5083 0004308 349.3348  10.7806 15.39742624610878"}}, "geometry": {"type": "Point", "coordinates": [0.697621220533414, -5.031871765209923]}}, {"type": "Feature", "properties": {"norad_id": 40376, "name": "SMAP", "group": "resource", "lat": -69.97314884511361, "lon": 161.31014531648879, "alt_km": 690.4459551143891, "timestamp": "2025-12-25T20:42:38.344439+00:00", "meta": {"OBJECT_NAME": "SMAP", "OBJECT_ID": "2015-003A", "EPOCH": "2025-12-25T06:26:09.912192", "MEAN_MOTION": 14.63360027, "ECCENTRICITY": 0.00012373, "INCLINATION": 98.1291, "RA_OF_ASC_NODE": 3.8114, "ARG_OF_PERICENTER": 92.1923, "MEAN_ANOMALY": 267.9421, "EPHEMERIS_TYPE": 0, "CLASSIFICATION_TYPE": "U", "NORAD_CAT_ID": 40376, "ELEMENT_SET_NO": 999, "REV_AT_EPOCH": 58218, "BSTAR": 0.00011437238, "MEAN_MOTION_DOT": 5.44e-06, "MEAN_MOTION_DDOT": 0}, "tle": {"line1": "1 40376U 15003A   25359.26817028  .00000544  00000+0  11437-3 0  9998", "line2": "2 40376  98.1291   3.8114 0001237  92.1923 267.9421 14.63360027582185"}}, "geometry": {"type": "Point", "coordinates": [161.31014531648879, -69.97314884511361]}}, {"type": "Feature", "properties": {"norad_id": 40536, "name": "KOMPSAT-3A", "group": "resource", "lat": 23.82928252555591, "lon": 158.35625553082843, "alt_km": 430.5948492921507, "timestamp": "2025-12-25T20:42:38.344449+00:00", "meta": {"OBJECT_NAME": "KOMPSAT-3A", "OBJECT_ID": "2015-014A", "EPOCH": "2025-12-25T06:02:37.052736", "MEAN_MOTION": 15.44400915, "ECCENTRICITY": 0.00056282, "INCLINATION": 97.6807, "RA_OF_ASC_NODE": 334.2935, "ARG_OF_PERICENTER": 100.1174, "MEAN_ANOMALY": 260.0709, "EPHEMERIS_TYPE": 0, "CLASSIFICATION_TYPE": "U", "NORAD_CAT_ID": 40536, "ELEMENT_SET_NO": 999, "REV_AT_EPOCH": 59488, "BSTAR": 0.00042728993, "MEAN_MOTION_DOT": 0.00019681, "MEAN_MOTION_DDOT": 0}, "tle": {"line1": "1 40536U 15014A   25359.25181774  .00019681  00000+0  42729-3 0  9999", "line2": "2 40536  97.6807 334.2935 0005628 100.1174 260.0709 15.44400915594882"}}, "geometry": {"type": "Point", "coordinates": [158.35625553082843, 23.82928252555591]}}, {"type": "Feature", "properties": {"norad_id": 40697, "name": "SENTINEL-2A", "group": "resource", "lat": 24.7075594204346, "lon": 68.23189882039433, "alt_km": 787.9574171150334, "timestamp": "2025-12-25T20:42:38.344459+00:00", "meta": {"OBJECT_NAME": "SENTINEL-2A", "OBJECT_ID": "2015-028A", "EPOCH": "2025-12-25T07:10:03.037728", "MEAN_MOTION": 14.30810416, "ECCENTRICITY": 0.00010551, "INCLINATION": 98.5728, "RA_OF_ASC_NODE": 71.6554, "ARG_OF_PERICENTER": 90.3997, "MEAN_ANOMALY": 269.7307, "EPHEMERIS_TYPE": 0, "CLASSIFICATION_TYPE": "U", "NORAD_CAT_ID": 40697, "ELEMENT_SET_NO": 999, "REV_AT_EPOCH": 54886, "BSTAR": 6.2592653e-05, "MEAN_MOTION_DOT": 1.2e-06, "MEAN_MOTION_DDOT": 0}, "tle": {"line1": "1 40697U 15028A   25359.29864627  .00000120  00000+0  62593-4 0  9991", "line2": "2 40697  98.5728  71.6554 0001055  90.3997 269.7307 14.30810416548866"}}, "geometry": {"type": "Point", "coordinates": [68.23189882039433, 24.7075594204346]}}]}